line1,line2,classification,launch_year,launch_number,launch_piece,epoch_year,epoch_day,mean_motion_dot,mean_motion_ddot,bstar,ephemeris_type,element_number,satellite_number,inclination,ra_of_asc_node,eccentricity,arg_of_perigee,mean_anomaly,mean_motion,rev_at_epoch,datetime,x,y,z,cartesian_cords,NORAD_CAT_ID,OBJECT_TYPE,SATNAME,SITE,Operator/Owner,Users,Purpose,anom_inclination,anom_ra_of_asc_node,anom_eccentricity,anom_arg_of_perigee,anom_mean_anomaly,anom_mean_motion,anom_count
1   877U 64053B   22019.53632279  .00000074  00000-0  40021-4 0  9993,2   877  65.0782  70.7369 0066032 186.7011 173.3212 14.59469728 46289,U,64,053,B,22,19.53632279,7.4e-07,0.0,0.0,0,999,877,65.0782,70.7369,0.0066032,186.7011,173.3212,14.59469728,4628,2022-01-19 12:52:18.289056,2382.524479024963,6711.053523223815,-5.164491324722395,[ 2.38252448e+03  6.71105352e+03 -5.16449132e+00],877,ROCKET BODY,SL-3 R/B,TTMTR,0,0,0,0.0,0.0,0.0,0.0,0.0,0.0,0.0
1 00877U 64053B   22018.85109034  .00000064  00000-0  37952-4 0  9993,2 00877  65.0782  72.7396 0066113 186.9578 173.0611 14.59469373 46186,U,64,053,B,22,18.85109034,6.4e-07,0.0,0.0,0,999,877,65.0782,72.7396,0.0066113,186.9578,173.0611,14.59469373,4618,2022-01-18 20:25:34.205376,2146.543757426107,6790.24964987769,-4.653565830961985,[ 2.14654376e+03  6.79024965e+03 -4.65356583e+00],877,ROCKET BODY,SL-3 R/B,TTMTR,0,0,0,0.0,0.0,0.0,0.0,0.0,0.0,0.0
1 00877U 64053B   22018.50847400  .00000057  00000-0  36646-4 0  9992,2 00877  65.0782  73.7409 0066159 187.0858 172.9313 14.59469209 46135,U,64,053,B,22,18.508474,5.7e-07,0.0,0.0,0,999,877,65.0782,73.7409,0.0066159,187.0858,172.9313,14.59469209,4613,2022-01-18 12:12:12.153600,2027.5626413753484,6826.742887966814,-4.406595164424596,[ 2.02756264e+03  6.82674289e+03 -4.40659516e+00],877,ROCKET BODY,SL-3 R/B,TTMTR,0,0,0,0.0,0.0,0.0,0.0,0.0,0.0,0.0
1   877U 64053B   22018.43995069  .00000062  00000-0  37537-4 0  9995,2   877  65.0782  73.9412 0066170 187.1122 172.9046 14.59469220 46124,U,64,053,B,22,18.43995069,6.2e-07,0.0,0.0,0,999,877,65.0782,73.9412,0.006617,187.1122,172.9046,14.5946922,4612,2022-01-18 10:33:31.739616,2003.6827093861168,6833.795169033596,-4.348761993447081,[ 2.00368271e+03  6.83379517e+03 -4.34876199e+00],877,ROCKET BODY,SL-3 R/B,TTMTR,0,0,0,0.0,0.0,0.0,0.0,0.0,0.0,0.0
1 00877U 64053B   22017.89176451  .00000066  00000-0  38369-4 0  9998,2 00877  65.0783  75.5433 0066230 187.3187 172.6952 14.59469042 46042,U,64,053,B,22,17.89176451,6.6e-07,0.0,0.0,0,999,877,65.0783,75.5433,0.006623,187.3187,172.6952,14.59469042,4604,2022-01-17 21:24:08.453664,1811.8462809878895,6887.163710124763,-3.951835973121882,[ 1.81184628e+03  6.88716371e+03 -3.95183597e+00],877,ROCKET BODY,SL-3 R/B,TTMTR,0,0,0,0.0,0.0,0.0,0.0,0.0,0.0,0.0
1 00877U 64053B   22017.54914810  .00000058  00000-0  36838-4 0  9999,2 00877  65.0783  76.5447 0066279 187.4430 172.5692 14.59468877 45991,U,64,053,B,22,17.5491481,5.8e-07,0.0,0.0,0,999,877,65.0783,76.5447,0.0066279,187.443,172.5692,14.59468877,4599,2022-01-17 13:10:46.395840,1691.2070642036842,6917.7990045995575,-3.694666493170966,[ 1.69120706e+03  6.91779900e+03 -3.69466649e+00],877,ROCKET BODY,SL-3 R/B,TTMTR,0,0,0,0.0,0.0,0.0,0.0,0.0,0.0,0.0
1   877U 64053B   22017.41210145  .00000067  00000-0  38551-4 0  9999,2   877  65.0783  76.9453 0066298 187.4956 172.5159 14.59468902 45971,U,64,053,B,22,17.41210145,6.7e-07,0.0,0.0,0,999,877,65.0783,76.9453,0.0066298,187.4956,172.5159,14.59468902,4597,2022-01-17 09:53:25.565280,1642.7984816809033,6929.462271989373,-3.5895442403690363,[ 1.64279848e+03  6.92946227e+03 -3.58954424e+00],877,ROCKET BODY,SL-3 R/B,TTMTR,0,0,0,0.0,0.0,0.0,0.0,0.0,0.0,0.0
1 00877U 64053B   22016.86391516  .00000069  00000-0  39011-4 0  9993,2 00877  65.0783  78.5474 0066356 187.6982 172.3105 14.59468715 45890,U,64,053,B,22,16.86391516,6.9e-07,0.0,0.0,0,999,877,65.0783,78.5474,0.0066356,187.6982,172.3105,14.59468715,4589,2022-01-16 20:44:02.269824,1448.424311119967,6972.702482527077,-3.181705669286159,[ 1.44842431e+03  6.97270248e+03 -3.18170567e+00],877,ROCKET BODY,SL-3 R/B,TTMTR,0,0,0,0.0,0.0,0.0,0.0,0.0,0.0,0.0
1 00877U 64053B   22016.52129866  .00000064  00000-0  38015-4 0  9991,2 00877  65.0783  79.5488 0066402 187.8278 172.1791 14.59468565 45845,U,64,053,B,22,16.52129866,6.4e-07,0.0,0.0,0,999,877,65.0783,79.5488,0.0066402,187.8278,172.1791,14.59468565,4584,2022-01-16 12:30:40.204224,1326.3452645827485,6996.9696814355075,-2.924755225738445,[ 1.32634526e+03  6.99696968e+03 -2.92475523e+00],877,ROCKET BODY,SL-3 R/B,TTMTR,0,0,0,0.0,0.0,0.0,0.0,0.0,0.0,0.0
1   877U 64053B   22016.17868210  .00000046  00000-0  34286-4 0  9991,2   877  65.0783  80.5501 0066444 187.9556 172.0496 14.59468389 45798,U,64,053,B,22,16.1786821,4.6e-07,0.0,0.0,0,999,877,65.0783,80.5501,0.0066444,187.9556,172.0496,14.59468389,4579,2022-01-16 04:17:18.133440,1203.8685861760014,7019.095446277447,-2.6590881059503744,[ 1.20386859e+03  7.01909545e+03 -2.65908811e+00],877,ROCKET BODY,SL-3 R/B,TTMTR,0,0,0,0.0,0.0,0.0,0.0,0.0,0.0,0.0
1 00877U 64053B   22015.90458883  .00000048  00000-0  34728-4 0  9995,2 00877  65.0783  81.3512 0066472 188.0618 171.9419 14.59468308 45751,U,64,053,B,22,15.90458883,4.8e-07,0.0,0.0,0,999,877,65.0783,81.3512,0.0066472,188.0618,171.9419,14.59468308,4575,2022-01-15 21:42:36.474912,1105.6171356128566,7035.248575644349,-2.4568044484608382,[ 1.10561714e+03  7.03524858e+03 -2.45680445e+00],877,ROCKET BODY,SL-3 R/B,TTMTR,0,0,0,0.0,0.0,0.0,0.0,0.0,0.0,0.0
1 00877U 64053B   22015.56197229  .00000040  00000-0  33109-4 0  9995,2 00877  65.0784  82.3526 0066514 188.1952 171.8068 14.59468142 45707,U,64,053,B,22,15.56197229,4e-07,0.0,0.0,0,999,877,65.0784,82.3526,0.0066514,188.1952,171.8068,14.59468142,4570,2022-01-15 13:29:14.405856,982.4884035642021,7053.512303455412,-2.1814854082829465,[ 9.82488404e+02  7.05351230e+03 -2.18148541e+00],877,ROCKET BODY,SL-3 R/B,TTMTR,0,0,0,0.0,0.0,0.0,0.0,0.0,0.0,0.0
1   877U 64053B   22014.73969233  .00000014  00000-0  27729-4 0  9997,2   877  65.0784  84.7558 0066613 188.4959 171.5019 14.59467789 45583,U,64,053,B,22,14.73969233,1.4e-07,0.0,0.0,0,999,877,65.0784,84.7558,0.0066613,188.4959,171.5019,14.59467789,4558,2022-01-14 17:45:09.417312,685.8635165531439,7088.540411857689,-1.560269626245779,[ 6.85863517e+02  7.08854041e+03 -1.56026963e+00],877,ROCKET BODY,SL-3 R/B,TTMTR,0,0,0,0.0,0.0,0.0,0.0,0.0,0.0,0.0
1 00877U 64053B   22014.53412229  .00000011  00000-0  27101-4 0  9994,2 00877  65.0784  85.3566 0066635 188.5852 171.4113 14.59467705 45555,U,64,053,B,22,14.53412229,1.1e-07,0.0,0.0,0,999,877,65.0784,85.3566,0.0066635,188.5852,171.4113,14.59467705,4555,2022-01-14 12:49:08.165856,611.5008872359776,7095.346974436878,-1.4117981499044496,[ 6.11500887e+02  7.09534697e+03 -1.41179815e+00],877,ROCKET BODY,SL-3 R/B,TTMTR,0,0,0,0.0,0.0,0.0,0.0,0.0,0.0,0.0
1 00877U 64053B   22013.57479533 -.00000012  00000-0  22496-4 0  9992,2 00877  65.0784  88.1603 0066750 188.9437 171.0479 14.59467377 45410,U,64,053,B,22,13.57479533,-1.2e-07,0.0,0.0,0,999,877,65.0784,88.1603,0.006675,188.9437,171.0479,14.59467377,4541,2022-01-13 13:47:42.316512,263.70058916604665,7116.801581959877,-0.671288167357065,[ 2.63700589e+02  7.11680158e+03 -6.71288167e-01],877,ROCKET BODY,SL-3 R/B,TTMTR,0,0,0,0.0,0.0,0.0,0.0,0.0,0.0,0.0
1 00877U 64053B   22012.54694488 -.00000026  00000-0  19583-4 0  9994,2 00877  65.0784  91.1643 0066873 189.3281 170.6581 14.59467067 45264,U,64,053,B,22,12.54694488,-2.6e-07,0.0,0.0,0,999,877,65.0784,91.1643,0.0066873,189.3281,170.6581,14.59467067,4526,2022-01-12 13:07:36.037632,-109.622722384845,7120.878170660182,0.10856811388969147,[-1.09622722e+02  7.12087817e+03  1.08568114e-01],877,ROCKET BODY,SL-3 R/B,TTMTR,0,0,0,0.0,0.0,0.0,0.0,0.0,0.0,0.0
1 00877U 64053B   22011.51909424 -.00000032  00000-0  18478-4 0  9998,2 00877  65.0784  94.1683 0067000 189.7099 170.2710 14.59466811 45115,U,64,053,B,22,11.51909424,-3.2e-07,0.0,0.0,0,999,877,65.0784,94.1683,0.0067,189.7099,170.271,14.59466811,4511,2022-01-11 12:27:29.742336,-482.65306600871804,7105.385106343846,0.897347149092984,[-4.82653066e+02  7.10538511e+03  8.97347149e-01],877,ROCKET BODY,SL-3 R/B,TTMTR,0,0,0,0.0,0.0,0.0,0.0,0.0,0.0,0.0
1 00877U 64053B   22010.62829023 -.00000035  00000-0  17886-4 0  9990,2 00877  65.0784  96.7717 0067105 190.0352 169.9412 14.59466604 44982,U,64,053,B,22,10.62829023,-3.5e-07,0.0,0.0,0,999,877,65.0784,96.7717,0.0067105,190.0352,169.9412,14.59466604,4498,2022-01-10 15:04:44.275872,-804.9052216586828,7076.15503339165,1.5811664718341603,[-8.04905222e+02  7.07615503e+03  1.58116647e+00],877,ROCKET BODY,SL-3 R/B,TTMTR,0,0,0,0.0,0.0,0.0,0.0,0.0,0.0,0.0
1 00877U 64053B   22010.55976683 -.00000036  00000-0  17699-4 0  9990,2 00877  65.0784  96.9719 0067115 190.0622 169.9138 14.59466584 44978,U,64,053,B,22,10.55976683,-3.6e-07,0.0,0.0,0,999,877,65.0784,96.9719,0.0067115,190.0622,169.9138,14.59466584,4497,2022-01-10 13:26:03.854112,-829.624839915153,7073.302575622691,1.6308804794547627,[-8.29624840e+02  7.07330258e+03  1.63088048e+00],877,ROCKET BODY,SL-3 R/B,TTMTR,0,0,0,0.0,0.0,0.0,0.0,0.0,0.0,0.0
1   877U 64053B   22010.49124341 -.00000030  00000-0  18943-4 0  9996,2   877  65.0784  97.1722 0067124 190.0879 169.8879 14.59466615 44964,U,64,053,B,22,10.49124341,-3e-07,0.0,0.0,0,999,877,65.0784,97.1722,0.0067124,190.0879,169.8879,14.59466615,4496,2022-01-10 11:47:23.430624,-854.3559111460032,7070.360468176058,1.7008644072798504,[-8.54355911e+02  7.07036047e+03  1.70086441e+00],877,ROCKET BODY,SL-3 R/B,TTMTR,0,0,0,0.0,0.0,0.0,0.0,0.0,0.0,0.0
1 00877U 64053B   22009.60043924 -.00000024  00000-0  20017-4 0  9992,2 00877  65.0784  99.7756 0067225 190.4218 169.5493 14.59466439 44831,U,64,053,B,22,9.60043924,-2.4e-07,0.0,0.0,0,999,877,65.0784,99.7756,0.0067225,190.4218,169.5493,14.59466439,4483,2022-01-09 14:24:37.950336,-1174.6297786527507,7024.277094754286,2.371988650594428,[-1.17462978e+03  7.02427709e+03  2.37198865e+00],877,ROCKET BODY,SL-3 R/B,TTMTR,0,0,0,0.0,0.0,0.0,0.0,0.0,0.0,0.0
